[{"OBJECT_NAME":"ONEWEB-0033","OBJECT_ID":"2020-008M","EPOCH":"2026-04-13T14:34:15.771936","MEAN_MOTION":13.103712,"ECCENTRICITY":0.0002178,"INCLINATION":87.883,"RA_OF_ASC_NODE":49.1291,"ARG_OF_PERICENTER":66.8195,"MEAN_ANOMALY":293.3162,"EPHEMERIS_TYPE":0,"CLASSIFICATION_TYPE":"U","NORAD_CAT_ID":45142,"ELEMENT_SET_NO":999,"REV_AT_EPOCH":29975,"BSTAR":0.0016481000000000002,"MEAN_MOTION_DOT":5.88e-06,"MEAN_MOTION_DDOT":0.0},{"OBJECT_NAME":"ONEWEB-0035","OBJECT_ID":"2020-008N","EPOCH":"2026-04-13T13:28:29.245440","MEAN_MOTION":13.10372188,"ECCENTRICITY":0.0001959,"INCLINATION":87.8826,"RA_OF_ASC_NODE":49.136,"ARG_OF_PERICENTER":76.9773,"MEAN_ANOMALY":283.1573,"EPHEMERIS_TYPE":0,"CLASSIFICATION_TYPE":"U","NORAD_CAT_ID":45143,"ELEMENT_SET_NO":999,"REV_AT_EPOCH":29947,"BSTAR":-0.0014317,"MEAN_MOTION_DOT":-4.87e-06,"MEAN_MOTION_DDOT":0.0},{"OBJECT_NAME":"ONEWEB-0036","OBJECT_ID":"2020-008P","EPOCH":"2026-04-13T22:59:45.914784","MEAN_MOTION":13.09821384,"ECCENTRICITY":0.0001785,"INCLINATION":87.8852,"RA_OF_ASC_NODE":49.0415,"ARG_OF_PERICENTER":86.1371,"MEAN_ANOMALY":273.996,"EPHEMERIS_TYPE":0,"CLASSIFICATION_TYPE":"U","NORAD_CAT_ID":45144,"ELEMENT_SET_NO":999,"REV_AT_EPOCH":29995,"BSTAR":-0.0015604000000000002,"MEAN_MOTION_DOT":-5.28e-06,"MEAN_MOTION_DDOT":0.0},{"OBJECT_NAME":"ONEWEB-0038","OBJECT_ID":"2020-008Q","EPOCH":"2026-04-13T05:46:05.183328","MEAN_MOTION":13.11418525,"ECCENTRICITY":0.0003529,"INCLINATION":87.8934,"RA_OF_ASC_NODE":33.9785,"ARG_OF_PERICENTER":85.1816,"MEAN_ANOMALY":274.9714,"EPHEMERIS_TYPE":0,"CLASSIFICATION_TYPE":"U","NORAD_CAT_ID":45145,"ELEMENT_SET_NO":999,"REV_AT_EPOCH":30181,"BSTAR":0.00058114,"MEAN_MOTION_DOT":2.19e-06,"MEAN_MOTION_DDOT":0.0},{"OBJECT_NAME":"ONEWEB-0039","OBJECT_ID":"2020-008R","EPOCH":"2026-04-13T14:39:01.844064","MEAN_MOTION":13.10372572,"ECCENTRICITY":0.0001922,"INCLINATION":87.8838,"RA_OF_ASC_NODE":49.1157,"ARG_OF_PERICENTER":95.8469,"MEAN_ANOMALY":264.2878,"EPHEMERIS_TYPE":0,"CLASSIFICATION_TYPE":"U","NORAD_CAT_ID":45146,"ELEMENT_SET_NO":999,"REV_AT_EPOCH":29970,"BSTAR":0.0017246,"MEAN_MOTION_DOT":6.15e-06,"MEAN_MOTION_DDOT":0.0},{"OBJECT_NAME":"ONEWEB-0040","OBJECT_ID":"2020-008S","EPOCH":"2026-04-13T14:29:28.462560","MEAN_MOTION":13.10373685,"ECCENTRICITY":0.0001963,"INCLINATION":87.8833,"RA_OF_ASC_NODE":49.1304,"ARG_OF_PERICENTER":80.9151,"MEAN_ANOMALY":279.2199,"EPHEMERIS_TYPE":0,"CLASSIFICATION_TYPE":"U","NORAD_CAT_ID":45147,"ELEMENT_SET_NO":999,"REV_AT_EPOCH":29940,"BSTAR":0.0019219,"MEAN_MOTION_DOT":6.84e-06,"MEAN_MOTION_DDOT":0.0},{"OBJECT_NAME":"ONEWEB-0043","OBJECT_ID":"2020-008U","EPOCH":"2026-04-13T14:31:51.252384","MEAN_MOTION":13.10374179,"ECCENTRICITY":0.0001903,"INCLINATION":87.8837,"RA_OF_ASC_NODE":49.1148,"ARG_OF_PERICENTER":97.3468,"MEAN_ANOMALY":262.7876,"EPHEMERIS_TYPE":0,"CLASSIFICATION_TYPE":"U","NORAD_CAT_ID":45149,"ELEMENT_SET_NO":999,"REV_AT_EPOCH":29972,"BSTAR":0.0019306000000000002,"MEAN_MOTION_DOT":6.87e-06,"MEAN_MOTION_DDOT":0.0},{"OBJECT_NAME":"ONEWEB-0044","OBJECT_ID":"2020-008V","EPOCH":"2026-04-13T20:42:21.089376","MEAN_MOTION":13.10369836,"ECCENTRICITY":0.000198,"INCLINATION":87.8839,"RA_OF_ASC_NODE":49.0609,"ARG_OF_PERICENTER":85.5426,"MEAN_ANOMALY":274.5927,"EPHEMERIS_TYPE":0,"CLASSIFICATION_TYPE":"U","NORAD_CAT_ID":45150,"ELEMENT_SET_NO":999,"REV_AT_EPOCH":30005,"BSTAR":-0.0014737,"MEAN_MOTION_DOT":-5.02e-06,"MEAN_MOTION_DDOT":0.0},{"OBJECT_NAME":"ONEWEB-0045","OBJECT_ID":"2020-008W","EPOCH":"2026-04-13T12:58:01.409376","MEAN_MOTION":13.11418106,"ECCENTRICITY":0.0001928,"INCLINATION":87.8925,"RA_OF_ASC_NODE":33.905,"ARG_OF_PERICENTER":81.8312,"MEAN_ANOMALY":278.3035,"EPHEMERIS_TYPE":0,"CLASSIFICATION_TYPE":"U","NORAD_CAT_ID":45151,"ELEMENT_SET_NO":999,"REV_AT_EPOCH":30193,"BSTAR":-0.00030407000000000003,"MEAN_MOTION_DOT":-9.5e-07,"MEAN_MOTION_DDOT":0.0},{"OBJECT_NAME":"ONEWEB-0047","OBJECT_ID":"2020-008X","EPOCH":"2026-04-13T13:12:57.309120","MEAN_MOTION":13.10368868,"ECCENTRICITY":0.0002059,"INCLINATION":87.8834,"RA_OF_ASC_NODE":49.1238,"ARG_OF_PERICENTER":77.4234,"MEAN_ANOMALY":282.7124,"EPHEMERIS_TYPE":0,"CLASSIFICATION_TYPE":"U","NORAD_CAT_ID":45152,"ELEMENT_SET_NO":999,"REV_AT_EPOCH":29973,"BSTAR":-0.0005878200000000001,"MEAN_MOTION_DOT":-1.93e-06,"MEAN_MOTION_DDOT":0.0},{"OBJECT_NAME":"ONEWEB-0048","OBJECT_ID":"2020-008Y","EPOCH":"2026-04-13T13:05:47.975424","MEAN_MOTION":13.10370346,"ECCENTRICITY":0.000197,"INCLINATION":87.8828,"RA_OF_ASC_NODE":49.1502,"ARG_OF_PERICENTER":79.2441,"MEAN_ANOMALY":280.8908,"EPHEMERIS_TYPE":0,"CLASSIFICATION_TYPE":"U","NORAD_CAT_ID":45153,"ELEMENT_SET_NO":999,"REV_AT_EPOCH":29934,"BSTAR":0.00025812000000000003,"MEAN_MOTION_DOT":1.03e-06,"MEAN_MOTION_DDOT":0.0},{"OBJECT_NAME":"ONEWEB-0049","OBJECT_ID":"2020-008Z","EPOCH":"2026-04-13T13:10:22.610784","MEAN_MOTION":13.10369253,"ECCENTRICITY":0.0001463,"INCLINATION":87.883,"RA_OF_ASC_NODE":49.1377,"ARG_OF_PERICENTER":83.584,"MEAN_ANOMALY":276.5454,"EPHEMERIS_TYPE":0,"CLASSIFICATION_TYPE":"U","NORAD_CAT_ID":45154,"ELEMENT_SET_NO":999,"REV_AT_EPOCH":29956,"BSTAR":-0.00011681,"MEAN_MOTION_DOT":-2.8e-07,"MEAN_MOTION_DDOT":0.0},{"OBJECT_NAME":"ONEWEB-0051","OBJECT_ID":"2020-008AA","EPOCH":"2026-04-13T18:25:10.104384","MEAN_MOTION":13.11416764,"ECCENTRICITY":0.000188,"INCLINATION":87.8918,"RA_OF_ASC_NODE":33.8719,"ARG_OF_PERICENTER":78.8237,"MEAN_ANOMALY":281.3103,"EPHEMERIS_TYPE":0,"CLASSIFICATION_TYPE":"U","NORAD_CAT_ID":45155,"ELEMENT_SET_NO":999,"REV_AT_EPOCH":30264,"BSTAR":-0.00067826,"MEAN_MOTION_DOT":-2.28e-06,"MEAN_MOTION_DDOT":0.0},{"OBJECT_NAME":"ONEWEB-0052","OBJECT_ID":"2020-008AB","EPOCH":"2026-04-13T13:40:26.089824","MEAN_MOTION":13.10374512,"ECCENTRICITY":0.0001422,"INCLINATION":87.8846,"RA_OF_ASC_NODE":49.1187,"ARG_OF_PERICENTER":85.2411,"MEAN_ANOMALY":274.8879,"EPHEMERIS_TYPE":0,"CLASSIFICATION_TYPE":"U","NORAD_CAT_ID":45156,"ELEMENT_SET_NO":999,"REV_AT_EPOCH":29947,"BSTAR":-0.0022017,"MEAN_MOTION_DOT":-7.56e-06,"MEAN_MOTION_DDOT":0.0},{"OBJECT_NAME":"ONEWEB-0053","OBJECT_ID":"2020-008AC","EPOCH":"2026-04-13T14:27:05.039424","MEAN_MOTION":13.10372583,"ECCENTRICITY":0.000175,"INCLINATION":87.8831,"RA_OF_ASC_NODE":49.1359,"ARG_OF_PERICENTER":95.5094,"MEAN_ANOMALY":264.6233,"EPHEMERIS_TYPE":0,"CLASSIFICATION_TYPE":"U","NORAD_CAT_ID":45157,"ELEMENT_SET_NO":999,"REV_AT_EPOCH":29945,"BSTAR":0.0016564000000000001,"MEAN_MOTION_DOT":5.91e-06,"MEAN_MOTION_DDOT":0.0},{"OBJECT_NAME":"ONEWEB-0054","OBJECT_ID":"2020-008AD","EPOCH":"2026-04-13T13:27:16.556256","MEAN_MOTION":13.10370483,"ECCENTRICITY":0.0001831,"INCLINATION":87.8837,"RA_OF_ASC_NODE":49.1215,"ARG_OF_PERICENTER":79.4249,"MEAN_ANOMALY":280.7084,"EPHEMERIS_TYPE":0,"CLASSIFICATION_TYPE":"U","NORAD_CAT_ID":45158,"ELEMENT_SET_NO":999,"REV_AT_EPOCH":29956,"BSTAR":-0.0016211,"MEAN_MOTION_DOT":-5.53e-06,"MEAN_MOTION_DDOT":0.0}]