{"generatedAt":"2026-04-14T07:56:45.725768Z","satellites":[{"name":"ONEWEB-0033","tle1":"1 45142U 20008M   26103.60712699  .00000588  00000+0  16481-2 0  9990","tle2":"2 45142  87.8830  49.1291 0002178  66.8195 293.3162 13.10371200299757"},{"name":"ONEWEB-0035","tle1":"1 45143U 20008N   26103.56144960 -.00000487  00000+0 -14317-2 0  9992","tle2":"2 45143  87.8826  49.1360 0001959  76.9773 283.1573 13.10372188299478"},{"name":"ONEWEB-0036","tle1":"1 45144U 20008P   26103.95817031 -.00000528  00000+0 -15604-2 0  9998","tle2":"2 45144  87.8852  49.0415 0001785  86.1371 273.9960 13.09821384299957"},{"name":"ONEWEB-0038","tle1":"1 45145U 20008Q   26103.24033777  .00000219  00000+0  58114-3 0  9997","tle2":"2 45145  87.8934  33.9785 0003529  85.1816 274.9714 13.11418525301811"},{"name":"ONEWEB-0039","tle1":"1 45146U 20008R   26103.61043801  .00000615  00000+0  17246-2 0  9998","tle2":"2 45146  87.8838  49.1157 0001922  95.8469 264.2878 13.10372572299701"},{"name":"ONEWEB-0040","tle1":"1 45147U 20008S   26103.60380165  .00000684  00000+0  19219-2 0  9993","tle2":"2 45147  87.8833  49.1304 0001963  80.9151 279.2199 13.10373685299404"},{"name":"ONEWEB-0043","tle1":"1 45149U 20008U   26103.60545431  .00000687  00000+0  19306-2 0  9994","tle2":"2 45149  87.8837  49.1148 0001903  97.3468 262.7876 13.10374179299726"},{"name":"ONEWEB-0044","tle1":"1 45150U 20008V   26103.86274409 -.00000502  00000+0 -14737-2 0  9999","tle2":"2 45150  87.8839  49.0609 0001980  85.5426 274.5927 13.10369836300050"},{"name":"ONEWEB-0045","tle1":"1 45151U 20008W   26103.54029409 -.00000095  00000+0 -30407-3 0  9993","tle2":"2 45151  87.8925  33.9050 0001928  81.8312 278.3035 13.11418106301930"},{"name":"ONEWEB-0047","tle1":"1 45152U 20008X   26103.55066330 -.00000193  00000+0 -58782-3 0  9994","tle2":"2 45152  87.8834  49.1238 0002059  77.4234 282.7124 13.10368868299737"},{"name":"ONEWEB-0048","tle1":"1 45153U 20008Y   26103.54569416  .00000103  00000+0  25812-3 0  9994","tle2":"2 45153  87.8828  49.1502 0001970  79.2441 280.8908 13.10370346299346"},{"name":"ONEWEB-0049","tle1":"1 45154U 20008Z   26103.54887281 -.00000028  00000+0 -11681-3 0  9995","tle2":"2 45154  87.8830  49.1377 0001463  83.5840 276.5454 13.10369253299565"},{"name":"ONEWEB-0051","tle1":"1 45155U 20008AA  26103.76747806 -.00000228  00000+0 -67826-3 0  9992","tle2":"2 45155  87.8918  33.8719 0001880  78.8237 281.3103 13.11416764302643"},{"name":"ONEWEB-0052","tle1":"1 45156U 20008AB  26103.56974641 -.00000756  00000+0 -22017-2 0  9998","tle2":"2 45156  87.8846  49.1187 0001422  85.2411 274.8879 13.10374512299477"},{"name":"ONEWEB-0053","tle1":"1 45157U 20008AC  26103.60214166  .00000591  00000+0  16564-2 0  9998","tle2":"2 45157  87.8831  49.1359 0001750  95.5094 264.6233 13.10372583299453"},{"name":"ONEWEB-0054","tle1":"1 45158U 20008AD  26103.56060829 -.00000553  00000+0 -16211-2 0  9998","tle2":"2 45158  87.8837  49.1215 0001831  79.4249 280.7084 13.10370483299566"}]}